CCSDS_OMM_VERS = 2.0
CREATION_DATE  = 
ORIGINATOR     = 

OBJECT_NAME    = UNKNOWN
OBJECT_ID      = 
CENTER_NAME    = EARTH
REF_FRAME      = TEME
TIME_SYSTEM    = UTC
MEAN_ELEMENT_THEORY = SGP/SGP4

EPOCH          = 2026-01-13T19:33:24.556320
MEAN_MOTION    = 13.09055741
ECCENTRICITY   = .002279
INCLINATION    = 90.3397
RA_OF_ASC_NODE = 39.1954
ARG_OF_PERICENTER = 30.5359
MEAN_ANOMALY   = 329.7090

EPHEMERIS_TYPE = 0
CLASSIFICATION_TYPE = U
NORAD_CAT_ID   = 82783
ELEMENT_SET_NO = 999
REV_AT_EPOCH   = 50855
BSTAR          = .23865E-2
MEAN_MOTION_DOT = .826E-5
MEAN_MOTION_DDOT = 0

CCSDS_OMM_VERS = 2.0
CREATION_DATE  = 
ORIGINATOR     = 

OBJECT_NAME    = UNKNOWN
OBJECT_ID      = 
CENTER_NAME    = EARTH
REF_FRAME      = TEME
TIME_SYSTEM    = UTC
MEAN_ELEMENT_THEORY = SGP/SGP4

EPOCH          = 2026-01-07T04:55:01.689888
MEAN_MOTION    = 14.23046412
ECCENTRICITY   = .002935
INCLINATION    = 82.9497
RA_OF_ASC_NODE = 171.3804
ARG_OF_PERICENTER = 94.9149
MEAN_ANOMALY   = 78.4119

EPHEMERIS_TYPE = 0
CLASSIFICATION_TYPE = U
NORAD_CAT_ID   = 82798
ELEMENT_SET_NO = 999
REV_AT_EPOCH   = 31599
BSTAR          = .1099E-2
MEAN_MOTION_DOT = .2504E-4
MEAN_MOTION_DDOT = 0

CCSDS_OMM_VERS = 2.0
CREATION_DATE  = 
ORIGINATOR     = 

OBJECT_NAME    = UNKNOWN
OBJECT_ID      = 
CENTER_NAME    = EARTH
REF_FRAME      = TEME
TIME_SYSTEM    = UTC
MEAN_ELEMENT_THEORY = SGP/SGP4

EPOCH          = 2026-01-16T17:57:23.860512
MEAN_MOTION    = 14.35219687
ECCENTRICITY   = .0049653
INCLINATION    = 99.7872
RA_OF_ASC_NODE = 187.1470
ARG_OF_PERICENTER = 274.4405
MEAN_ANOMALY   = 85.1105

EPHEMERIS_TYPE = 0
CLASSIFICATION_TYPE = U
NORAD_CAT_ID   = 82820
ELEMENT_SET_NO = 999
REV_AT_EPOCH   = 63065
BSTAR          = .90793E-3
MEAN_MOTION_DOT = .2579E-4
MEAN_MOTION_DDOT = 0

CCSDS_OMM_VERS = 2.0
CREATION_DATE  = 
ORIGINATOR     = 

OBJECT_NAME    = UNKNOWN
OBJECT_ID      = 
CENTER_NAME    = EARTH
REF_FRAME      = TEME
TIME_SYSTEM    = UTC
MEAN_ELEMENT_THEORY = SGP/SGP4

EPOCH          = 2026-01-14T18:31:44.196384
MEAN_MOTION    = 13.87943592
ECCENTRICITY   = .0129642
INCLINATION    = 82.6887
RA_OF_ASC_NODE = 38.6906
ARG_OF_PERICENTER = 186.6845
MEAN_ANOMALY   = 173.2595

EPHEMERIS_TYPE = 0
CLASSIFICATION_TYPE = U
NORAD_CAT_ID   = 82854
ELEMENT_SET_NO = 999
REV_AT_EPOCH   = 61238
BSTAR          = .7913E-3
MEAN_MOTION_DOT = .1021E-4
MEAN_MOTION_DDOT = 0

CCSDS_OMM_VERS = 2.0
CREATION_DATE  = 
ORIGINATOR     = 

OBJECT_NAME    = UNKNOWN
OBJECT_ID      = 
CENTER_NAME    = EARTH
REF_FRAME      = TEME
TIME_SYSTEM    = UTC
MEAN_ELEMENT_THEORY = SGP/SGP4

EPOCH          = 2026-01-15T16:12:08.913888
MEAN_MOTION    = 14.24699805
ECCENTRICITY   = .0037279
INCLINATION    = 99.9970
RA_OF_ASC_NODE = 279.4947
ARG_OF_PERICENTER = 189.8082
MEAN_ANOMALY   = 170.2369

EPHEMERIS_TYPE = 0
CLASSIFICATION_TYPE = U
NORAD_CAT_ID   = 82873
ELEMENT_SET_NO = 999
REV_AT_EPOCH   = 62606
BSTAR          = .83497E-3
MEAN_MOTION_DOT = .1902E-4
MEAN_MOTION_DDOT = 0

CCSDS_OMM_VERS = 2.0
CREATION_DATE  = 
ORIGINATOR     = 

OBJECT_NAME    = UNKNOWN
OBJECT_ID      = 
CENTER_NAME    = EARTH
REF_FRAME      = TEME
TIME_SYSTEM    = UTC
MEAN_ELEMENT_THEORY = SGP/SGP4

EPOCH          = 2026-01-08T04:49:08.345856
MEAN_MOTION    = 14.15206121
ECCENTRICITY   = .0377481
INCLINATION    = 98.6776
RA_OF_ASC_NODE = 355.8998
ARG_OF_PERICENTER = 206.9876
MEAN_ANOMALY   = 151.1221

EPHEMERIS_TYPE = 0
CLASSIFICATION_TYPE = U
NORAD_CAT_ID   = 82875
ELEMENT_SET_NO = 999
REV_AT_EPOCH   = 54821
BSTAR          = .14601E-3
MEAN_MOTION_DOT = .511E-5
MEAN_MOTION_DDOT = 0

CCSDS_OMM_VERS = 2.0
CREATION_DATE  = 
ORIGINATOR     = 

OBJECT_NAME    = UNKNOWN
OBJECT_ID      = 
CENTER_NAME    = EARTH
REF_FRAME      = TEME
TIME_SYSTEM    = UTC
MEAN_ELEMENT_THEORY = SGP/SGP4

EPOCH          = 2026-01-17T14:12:23.653152
MEAN_MOTION    = 14.32224281
ECCENTRICITY   = .0024089
INCLINATION    = 98.9602
RA_OF_ASC_NODE = 138.8489
ARG_OF_PERICENTER = 291.2998
MEAN_ANOMALY   = 68.5613

EPHEMERIS_TYPE = 0
CLASSIFICATION_TYPE = U
NORAD_CAT_ID   = 82893
ELEMENT_SET_NO = 999
REV_AT_EPOCH   = 42910
BSTAR          = .25897E-2
MEAN_MOTION_DOT = .6961E-4
MEAN_MOTION_DDOT = 0

CCSDS_OMM_VERS = 2.0
CREATION_DATE  = 
ORIGINATOR     = 

OBJECT_NAME    = UNKNOWN
OBJECT_ID      = 
CENTER_NAME    = EARTH
REF_FRAME      = TEME
TIME_SYSTEM    = UTC
MEAN_ELEMENT_THEORY = SGP/SGP4

EPOCH          = 2026-01-16T21:42:59.603328
MEAN_MOTION    = 13.27946494
ECCENTRICITY   = .0776086
INCLINATION    = 65.8388
RA_OF_ASC_NODE = 93.2313
ARG_OF_PERICENTER = 252.9120
MEAN_ANOMALY   = 98.5557

EPHEMERIS_TYPE = 0
CLASSIFICATION_TYPE = U
NORAD_CAT_ID   = 82912
ELEMENT_SET_NO = 999
REV_AT_EPOCH   = 58399
BSTAR          = .13824E-2
MEAN_MOTION_DOT = .3359E-4
MEAN_MOTION_DDOT = 0

CCSDS_OMM_VERS = 2.0
CREATION_DATE  = 
ORIGINATOR     = 

OBJECT_NAME    = UNKNOWN
OBJECT_ID      = 
CENTER_NAME    = EARTH
REF_FRAME      = TEME
TIME_SYSTEM    = UTC
MEAN_ELEMENT_THEORY = SGP/SGP4

EPOCH          = 2026-01-14T04:24:57.138624
MEAN_MOTION    = 13.24178156
ECCENTRICITY   = .0415741
INCLINATION    = 99.8544
RA_OF_ASC_NODE = 172.0207
ARG_OF_PERICENTER = 285.1784
MEAN_ANOMALY   = 70.3726

EPHEMERIS_TYPE = 0
CLASSIFICATION_TYPE = U
NORAD_CAT_ID   = 82961
ELEMENT_SET_NO = 999
REV_AT_EPOCH   = 56000
BSTAR          = .15746E-1
MEAN_MOTION_DOT = .10659E-3
MEAN_MOTION_DDOT = 0

CCSDS_OMM_VERS = 2.0
CREATION_DATE  = 
ORIGINATOR     = 

OBJECT_NAME    = UNKNOWN
OBJECT_ID      = 
CENTER_NAME    = EARTH
REF_FRAME      = TEME
TIME_SYSTEM    = UTC
MEAN_ELEMENT_THEORY = SGP/SGP4

EPOCH          = 2026-01-16T04:28:13.276992
MEAN_MOTION    = 13.60084620
ECCENTRICITY   = .000234
INCLINATION    = 100.1131
RA_OF_ASC_NODE = 101.8328
ARG_OF_PERICENTER = 178.1707
MEAN_ANOMALY   = 181.9440

EPHEMERIS_TYPE = 0
CLASSIFICATION_TYPE = U
NORAD_CAT_ID   = 82965
ELEMENT_SET_NO = 999
REV_AT_EPOCH   = 52913
BSTAR          = .11043E-2
MEAN_MOTION_DOT = .777E-5
MEAN_MOTION_DDOT = 0

CCSDS_OMM_VERS = 2.0
CREATION_DATE  = 
ORIGINATOR     = 

OBJECT_NAME    = UNKNOWN
OBJECT_ID      = 
CENTER_NAME    = EARTH
REF_FRAME      = TEME
TIME_SYSTEM    = UTC
MEAN_ELEMENT_THEORY = SGP/SGP4

EPOCH          = 2025-12-25T21:37:02.278848
MEAN_MOTION    = 0.99112291
ECCENTRICITY   = .0123611
INCLINATION    = 6.1512
RA_OF_ASC_NODE = 290.5041
ARG_OF_PERICENTER = 251.9924
MEAN_ANOMALY   = 284.4041

EPHEMERIS_TYPE = 0
CLASSIFICATION_TYPE = U
NORAD_CAT_ID   = 83903
ELEMENT_SET_NO = 999
REV_AT_EPOCH   = 4379
BSTAR          = 0
MEAN_MOTION_DOT = .121E-5
MEAN_MOTION_DDOT = 0

CCSDS_OMM_VERS = 2.0
CREATION_DATE  = 
ORIGINATOR     = 

OBJECT_NAME    = UNKNOWN
OBJECT_ID      = 
CENTER_NAME    = EARTH
REF_FRAME      = TEME
TIME_SYSTEM    = UTC
MEAN_ELEMENT_THEORY = SGP/SGP4

EPOCH          = 2026-01-11T01:40:14.972736
MEAN_MOTION    = 5.32506068
ECCENTRICITY   = .5069842
INCLINATION    = 18.2957
RA_OF_ASC_NODE = 185.8455
ARG_OF_PERICENTER = 206.1060
MEAN_ANOMALY   = 115.6731

EPHEMERIS_TYPE = 0
CLASSIFICATION_TYPE = U
NORAD_CAT_ID   = 83970
ELEMENT_SET_NO = 999
REV_AT_EPOCH   = 19777
BSTAR          = .81639E-2
MEAN_MOTION_DOT = .7813E-4
MEAN_MOTION_DDOT = 0

