UNKNOWN                 
1 82783U          26013.81486755  .00000826  00000+0  23865-2 0  9995
2 82783  90.3397  39.1954 0022790  30.5359 329.7090 13.09055741508555
UNKNOWN                 
1 82798U          26007.20488067  .00002504  00000+0  10990-2 0  9995
2 82798  82.9497 171.3804 0029350  94.9149  78.4119 14.23046412315998
UNKNOWN                 
1 82820U          26016.74819283  .00002579  00000+0  90793-3 0  9990
2 82820  99.7872 187.1470 0049653 274.4405  85.1105 14.35219687630651
UNKNOWN                 
1 82854U          26014.77203931  .00001021  00000+0  79130-3 0  9998
2 82854  82.6887  38.6906 0129642 186.6845 173.2595 13.87943592612385
UNKNOWN                 
1 82873U          26015.67510317  .00001902  00000+0  83497-3 0  9997
2 82873  99.9970 279.4947 0037279 189.8082 170.2369 14.24699805626065
UNKNOWN                 
1 82875U          26008.20079104  .00000511  00000+0  14601-3 0  9990
2 82875  98.6776 355.8998 0377481 206.9876 151.1221 14.15206121548216
UNKNOWN                 
1 82893U          26017.59194043  .00006961  00000+0  25897-2 0  9995
2 82893  98.9602 138.8489 0024089 291.2998  68.5613 14.32224281429104
UNKNOWN                 
1 82912U          26016.90485652  .00003359  00000+0  13824-2 0  9995
2 82912  65.8388  93.2313 0776086 252.9120  98.5557 13.27946494583990
UNKNOWN                 
1 82961U          26014.18399466  .00010659  00000+0  15746-1 0  9999
2 82961  99.8544 172.0207 0415741 285.1784  70.3726 13.24178156560007
UNKNOWN                 
1 82965U          26016.18626478  .00000777  00000+0  11043-2 0  9998
2 82965 100.1131 101.8328 0002340 178.1707 181.9440 13.60084620529139
UNKNOWN                 
1 83903U          25359.90072082  .00000121  00000+0  00000+0 0  9997
2 83903   6.1512 290.5041 0123611 251.9924 284.4041  0.99112291 43797
UNKNOWN                 
1 83970U          26011.06961774  .00007813  00000+0  81639-2 0  9994
2 83970  18.2957 185.8455 5069842 206.1060 115.6731  5.32506068197776
